{"type": "FeatureCollection", "features": [ {"type": "Feature", "properties": {"norad_id": 64901, "name": "CO3D 4", "group": "resource", "lat": -74.15544280665742, "lon": -146.01732007053286, "alt_km": 512.0266659764784, "timestamp": "2025-12-10T23:33:12.484750+00:00", "meta": {"OBJECT_NAME": "CO3D 4", "OBJECT_ID": "2025-156C", "EPOCH": "2025-12-09T21:09:17.831232", "MEAN_MOTION": 15.20201124, "ECCENTRICITY": 0.0001172, "INCLINATION": 97.4339, "RA_OF_ASC_NODE": 60.2895, "ARG_OF_PERICENTER": 212.2858, "MEAN_ANOMALY": 147.8306, "EPHEMERIS_TYPE": 0, "CLASSIFICATION_TYPE": "U", "NORAD_CAT_ID": 64901, "ELEMENT_SET_NO": 999, "REV_AT_EPOCH": 2077, "BSTAR": -2.5806744e-05, "MEAN_MOTION_DOT": -6.26e-06, "MEAN_MOTION_DDOT": 0}, "tle": {"line1": "1 64901U 25156C   25343.88145638 -.00000626  00000+0 -25807-4 0  9990", "line2": "2 64901  97.4339  60.2895 0001172 212.2858 147.8306 15.20201124 20779"}}, "geometry": {"type": "Point", "coordinates": [-146.01732007053286, -74.15544280665742]}}, {"type": "Feature", "properties": {"norad_id": 64902, "name": "CO3D 2", "group": "resource", "lat": 75.40182205875679, "lon": 31.230730235092928, "alt_km": 503.18750092557, "timestamp": "2025-12-10T23:33:12.484760+00:00", "meta": {"OBJECT_NAME": "CO3D 2", "OBJECT_ID": "2025-156D", "EPOCH": "2025-12-09T12:27:23.938848", "MEAN_MOTION": 15.20057842, "ECCENTRICITY": 0.00090681, "INCLINATION": 97.4213, "RA_OF_ASC_NODE": 59.8234, "ARG_OF_PERICENTER": 303.4369, "MEAN_ANOMALY": 56.5998, "EPHEMERIS_TYPE": 0, "CLASSIFICATION_TYPE": "U", "NORAD_CAT_ID": 64902, "ELEMENT_SET_NO": 999, "REV_AT_EPOCH": 2071, "BSTAR": 0.00028838885, "MEAN_MOTION_DOT": 6.16e-05, "MEAN_MOTION_DDOT": 0}, "tle": {"line1": "1 64902U 25156D   25343.51902707  .00006160  00000+0  28839-3 0  9993", "line2": "2 64902  97.4213  59.8234 0009068 303.4369  56.5998 15.20057842 20717"}}, "geometry": {"type": "Point", "coordinates": [31.230730235092928, 75.40182205875679]}}, {"type": "Feature", "properties": {"norad_id": 64903, "name": "CO3D 1", "group": "resource", "lat": 75.44302420564492, "lon": 31.08618113424984, "alt_km": 497.44337259835356, "timestamp": "2025-12-10T23:33:12.484768+00:00", "meta": {"OBJECT_NAME": "CO3D 1", "OBJECT_ID": "2025-156E", "EPOCH": "2025-12-10T15:18:55.278720", "MEAN_MOTION": 15.20203269, "ECCENTRICITY": 9.561e-05, "INCLINATION": 97.4339, "RA_OF_ASC_NODE": 60.9342, "ARG_OF_PERICENTER": 98.3526, "MEAN_ANOMALY": 261.7818, "EPHEMERIS_TYPE": 0, "CLASSIFICATION_TYPE": "U", "NORAD_CAT_ID": 64903, "ELEMENT_SET_NO": 999, "REV_AT_EPOCH": 2088, "BSTAR": 0.00042870349, "MEAN_MOTION_DOT": 9.225e-05, "MEAN_MOTION_DDOT": 0}, "tle": {"line1": "1 64903U 25156E   25344.63813980  .00009225  00000+0  42870-3 0  9998", "line2": "2 64903  97.4339  60.9342 0000956  98.3526 261.7818 15.20203269 20887"}}, "geometry": {"type": "Point", "coordinates": [31.08618113424984, 75.44302420564492]}}, {"type": "Feature", "properties": {"norad_id": 66514, "name": "SENTINEL-6B", "group": "resource", "lat": -64.65808487544665, "lon": 96.20555834145114, "alt_km": 1315.7413849265913, "timestamp": "2025-12-10T23:33:12.484778+00:00", "meta": {"OBJECT_NAME": "SENTINEL-6B", "OBJECT_ID": "2025-264A", "EPOCH": "2025-12-08T23:22:28.384896", "MEAN_MOTION": 12.84031992, "ECCENTRICITY": 0.00210406, "INCLINATION": 66.0385, "RA_OF_ASC_NODE": 170.2707, "ARG_OF_PERICENTER": 268.23, "MEAN_ANOMALY": 91.6307, "EPHEMERIS_TYPE": 0, "CLASSIFICATION_TYPE": "U", "NORAD_CAT_ID": 66514, "ELEMENT_SET_NO": 999, "REV_AT_EPOCH": 280, "BSTAR": 0.000106025, "MEAN_MOTION_DOT": -3.6e-07, "MEAN_MOTION_DDOT": 0}, "tle": {"line1": "1 66514U 25264A   25342.97393964 -.00000036  00000+0  10602-3 0  9998", "line2": "2 66514  66.0385 170.2707 0021040 268.2300  91.6307 12.84031992  2809"}}, "geometry": {"type": "Point", "coordinates": [96.20555834145114, -64.65808487544665]}}]}